0 ARIANE 1 DEB
1 17233U 86019CF  13283.02614848  .00005508  00000-0  99690-3 0  2740
2 17233 098.3816 041.8472 0019851 218.2672 196.0988 14.66636921418706
0 ARIANE 1 DEB
1 17233U 86019CF  13283.62987174  .00007225  00000-0  12973-2 0  2758
2 17233 098.3822 042.4632 0019723 216.0627 143.9747 14.66631780418793
0 ARIANE 1 DEB
1 17233U 86019CF  13284.13132064  .00006250  00000-0  11295-2 0  2758
2 17233 098.3815 042.9762 0019916 214.8527 271.2617 14.66644403418868
0 ARIANE 1 DEB
1 17233U 86019CF  13286.29616331  .00004404  00000-0  79857-3 0  2771
2 17233 098.3817 045.1876 0020060 208.1324 181.4766 14.66665449419180
0 ARIANE 1 DEB
1 17233U 86019CF  13287.38997696  .00005538  00000-0  10013-2 0  2786
2 17233 098.3820 046.3051 0020117 204.7810 196.7517 14.66673303419346
0 ARIANE 1 DEB
1 17233U 86019CF  13288.83770896  .00006248  00000-0  11278-2 0  2792
2 17233 098.3826 047.7843 0020155 200.2454 280.8656 14.66695513419552
0 ARIANE 1 DEB
1 17233U 86019CF  13289.86154631  .00007622  00000-0  13732-2 0  2805
2 17233 098.3830 048.8305 0020202 197.2012 286.6917 14.66705365419708
0 ARIANE 1 DEB
1 17233U 86019CF  13291.07526344  .00006556  00000-0  11823-2 0  2810
2 17233 098.3834 050.0709 0020258 193.4378 215.2839 14.66720998419888
0 ARIANE 1 DEB
1 17233U 86019CF  13292.30399278  .00006072  00000-0  10953-2 0  2828
2 17233 098.3836 051.3265 0020300 189.6435 223.1898 14.66734801420063
0 ARIANE 1 DEB
1 17233U 86019CF  13293.39344847  .00007126  00000-0  12833-2 0  2831
2 17233 098.3837 052.4399 0020340 186.3713 215.6682 14.66746224420228
0 ARIANE 1 DEB
1 17233U 86019CF  13294.78043244  .00007556  00000-0  13596-2 0  2847
2 17233 098.3835 053.8573 0020391 182.1030 339.3050 14.66762977420425
0 ARIANE 1 DEB
1 17233U 86019CF  13296.05646130  .00007855  00000-0  14125-2 0  2854
2 17233 098.3832 055.1613 0020405 178.3391 236.9850 14.66776138420610
